start=new Date('2022-07-25T00:00:00.000Z').valueOf();
sats=[{"OBJECT_ID":"2021-009AP","ELEMENT_SET_NO":"999","CLASSIFICATION_TYPE":"U","RA_OF_ASC_NODE":"205.0720","EPHEMERIS_TYPE":"0","DECAY_DATE":null,"ARG_OF_PERICENTER":"48.8930","RCS_SIZE":"LARGE","REF_FRAME":"TEME","MEAN_MOTION_DOT":"0.00001411","MEAN_ANOMALY":"311.2241","COUNTRY_CODE":"US","APOAPSIS":"548.659","OBJECT_NAME":"STARLINK-1989","NORAD_CAT_ID":"47585","ECCENTRICITY":"0.00021130","REV_AT_EPOCH":"8124","SITE":"AFETR","CENTER_NAME":"EARTH","OBJECT_TYPE":"PAYLOAD","MEAN_ELEMENT_THEORY":"SGP4","MEAN_MOTION_DDOT":"0.0000000000000","FILE":"3521124","TIME_SYSTEM":"UTC","INCLINATION":"53.0539","MEAN_MOTION":"15.06405707","TLE_LINE2":"2 47585  53.0539 205.0720 0002113  48.8930 311.2241 15.06405707 81245","PERIOD":"95.592","PERIAPSIS":"545.733","SEMIMAJOR_AXIS":"6925.331","TLE_LINE1":"1 47585U 21009AP  22205.73996483  .00001411  00000-0  11357-3 0  9998","GP_ID":"208797579","BSTAR":"0.00011357000000","LAUNCH_DATE":"2021-02-04","EPOCH":"2022-07-24T17:45:32.961312"},{"TIME_SYSTEM":"UTC","MEAN_MOTION_DDOT":"0.0000000000000","FILE":"3521124","CENTER_NAME":"EARTH","OBJECT_TYPE":"PAYLOAD","MEAN_ELEMENT_THEORY":"SGP4","REV_AT_EPOCH":"8097","SITE":"AFETR","BSTAR":"-0.00001613900000","LAUNCH_DATE":"2021-02-04","EPOCH":"2022-07-24T18:57:12.852576","TLE_LINE1":"1 47586U 21009AQ  22205.78973209 -.00000522  00000-0 -16139-4 0  9993","SEMIMAJOR_AXIS":"6925.357","GP_ID":"208797829","PERIAPSIS":"546.013","INCLINATION":"53.0530","MEAN_MOTION":"15.06397115","TLE_LINE2":"2 47586  53.0530 224.8449 0001747  57.9703 302.1456 15.06397115 80974","PERIOD":"95.592","RCS_SIZE":"LARGE","REF_FRAME":"TEME","MEAN_MOTION_DOT":"-0.00000522","MEAN_ANOMALY":"302.1456","DECAY_DATE":null,"ARG_OF_PERICENTER":"57.9703","RA_OF_ASC_NODE":"224.8449","EPHEMERIS_TYPE":"0","OBJECT_ID":"2021-009AQ","ELEMENT_SET_NO":"999","CLASSIFICATION_TYPE":"U","NORAD_CAT_ID":"47586","ECCENTRICITY":"0.00017470","OBJECT_NAME":"STARLINK-1990","COUNTRY_CODE":"US","APOAPSIS":"548.432"},{"OBJECT_NAME":"STARLINK-1991","APOAPSIS":"548.247","COUNTRY_CODE":"US","ECCENTRICITY":"0.00015140","NORAD_CAT_ID":"47587","EPHEMERIS_TYPE":"0","RA_OF_ASC_NODE":"194.5706","CLASSIFICATION_TYPE":"U","ELEMENT_SET_NO":"999","OBJECT_ID":"2021-009AR","MEAN_ANOMALY":"299.9137","MEAN_MOTION_DOT":"0.00000118","REF_FRAME":"TEME","RCS_SIZE":"LARGE","ARG_OF_PERICENTER":"60.2002","DECAY_DATE":null,"PERIAPSIS":"546.150","PERIOD":"95.592","TLE_LINE2":"2 47587  53.0537 194.5706 0001514  60.2002 299.9137 15.06404981 81400","INCLINATION":"53.0537","MEAN_MOTION":"15.06404981","EPOCH":"2022-07-24T20:26:07.158336","LAUNCH_DATE":"2021-02-04","BSTAR":"0.00002681700000","GP_ID":"208799080","TLE_LINE1":"1 47587U 21009AR  22205.85147174  .00000118  00000-0  26817-4 0  9999","SEMIMAJOR_AXIS":"6925.333","MEAN_ELEMENT_THEORY":"SGP4","CENTER_NAME":"EARTH","OBJECT_TYPE":"PAYLOAD","SITE":"AFETR","REV_AT_EPOCH":"8140","TIME_SYSTEM":"UTC","FILE":"3521124","MEAN_MOTION_DDOT":"0.0000000000000"},{"TIME_SYSTEM":"UTC","MEAN_MOTION_DDOT":"0.0000000000000","FILE":"3521124","OBJECT_TYPE":"PAYLOAD","CENTER_NAME":"EARTH","MEAN_ELEMENT_THEORY":"SGP4","REV_AT_EPOCH":"8125","SITE":"AFETR","LAUNCH_DATE":"2021-02-04","BSTAR":"0.00000181960000","EPOCH":"2022-07-24T18:38:38.584608","TLE_LINE1":"1 47588U 21009AS  22205.77683547 -.00000254  00000-0  18196-5 0  9994","SEMIMAJOR_AXIS":"6925.365","GP_ID":"208798824","PERIAPSIS":"546.217","MEAN_MOTION":"15.06394555","INCLINATION":"53.0532","PERIOD":"95.592","TLE_LINE2":"2 47588  53.0532 204.8853 0001463  66.6891 293.4252 15.06394555 81258","REF_FRAME":"TEME","RCS_SIZE":"LARGE","MEAN_ANOMALY":"293.4252","MEAN_MOTION_DOT":"-0.00000254","DECAY_DATE":null,"ARG_OF_PERICENTER":"66.6891","RA_OF_ASC_NODE":"204.8853","EPHEMERIS_TYPE":"0","OBJECT_ID":"2021-009AS","CLASSIFICATION_TYPE":"U","ELEMENT_SET_NO":"999","ECCENTRICITY":"0.00014630","NORAD_CAT_ID":"47588","OBJECT_NAME":"STARLINK-1993","COUNTRY_CODE":"US","APOAPSIS":"548.243"},{"DECAY_DATE":null,"ARG_OF_PERICENTER":"63.2518","REF_FRAME":"TEME","RCS_SIZE":"LARGE","MEAN_ANOMALY":"296.8655","MEAN_MOTION_DOT":"0.00001022","OBJECT_ID":"2021-009AT","CLASSIFICATION_TYPE":"U","ELEMENT_SET_NO":"999","RA_OF_ASC_NODE":"205.1162","EPHEMERIS_TYPE":"0","ECCENTRICITY":"0.00017960","NORAD_CAT_ID":"47589","COUNTRY_CODE":"US","APOAPSIS":"548.503","OBJECT_NAME":"STARLINK-1994","MEAN_MOTION_DDOT":"0.0000000000000","FILE":"3521124","TIME_SYSTEM":"UTC","REV_AT_EPOCH":"8124","SITE":"AFETR","OBJECT_TYPE":"PAYLOAD","CENTER_NAME":"EARTH","MEAN_ELEMENT_THEORY":"SGP4","SEMIMAJOR_AXIS":"6925.394","TLE_LINE1":"1 47589U 21009AT  22205.72893622  .00001022  00000-0  87553-4 0  9992","GP_ID":"208798079","LAUNCH_DATE":"2021-02-04","BSTAR":"0.00008755300000","EPOCH":"2022-07-24T17:29:40.089408","INCLINATION":"53.0536","MEAN_MOTION":"15.06385025","PERIOD":"95.593","TLE_LINE2":"2 47589  53.0536 205.1162 0001796  63.2518 296.8655 15.06385025 81243","PERIAPSIS":"546.016"},{"PERIAPSIS":"545.927","PERIOD":"95.592","TLE_LINE2":"2 47590  53.0524 224.8674 0001819  56.7172 303.3991 15.06408860 80976","INCLINATION":"53.0524","MEAN_MOTION":"15.06408860","EPOCH":"2022-07-24T18:51:54.840096","LAUNCH_DATE":"2021-02-04","BSTAR":"0.00026423000000","GP_ID":"208798329","SEMIMAJOR_AXIS":"6925.321","TLE_LINE1":"1 47590U 21009AU  22205.78605139  .00003657  00000-0  26423-3 0  9998","MEAN_ELEMENT_THEORY":"SGP4","CENTER_NAME":"EARTH","OBJECT_TYPE":"PAYLOAD","SITE":"AFETR","REV_AT_EPOCH":"8097","TIME_SYSTEM":"UTC","FILE":"3521124","MEAN_MOTION_DDOT":"0.0000000000000","OBJECT_NAME":"STARLINK-1995","APOAPSIS":"548.446","COUNTRY_CODE":"US","ECCENTRICITY":"0.00018190","NORAD_CAT_ID":"47590","EPHEMERIS_TYPE":"0","RA_OF_ASC_NODE":"224.8674","CLASSIFICATION_TYPE":"U","ELEMENT_SET_NO":"999","OBJECT_ID":"2021-009AU","MEAN_ANOMALY":"303.3991","MEAN_MOTION_DOT":"0.00003657","REF_FRAME":"TEME","RCS_SIZE":"LARGE","ARG_OF_PERICENTER":"56.7172","DECAY_DATE":null},{"DECAY_DATE":null,"ARG_OF_PERICENTER":"52.4164","RCS_SIZE":"LARGE","REF_FRAME":"TEME","MEAN_MOTION_DOT":"-0.00000299","MEAN_ANOMALY":"307.6982","OBJECT_ID":"2021-009AV","ELEMENT_SET_NO":"999","CLASSIFICATION_TYPE":"U","RA_OF_ASC_NODE":"205.1376","EPHEMERIS_TYPE":"0","NORAD_CAT_ID":"47591","ECCENTRICITY":"0.00017370","COUNTRY_CODE":"US","APOAPSIS":"548.433","OBJECT_NAME":"STARLINK-1996","MEAN_MOTION_DDOT":"0.0000000000000","FILE":"3521124","TIME_SYSTEM":"UTC","REV_AT_EPOCH":"8124","SITE":"AFETR","OBJECT_TYPE":"PAYLOAD","CENTER_NAME":"EARTH","MEAN_ELEMENT_THEORY":"SGP4","SEMIMAJOR_AXIS":"6925.365","TLE_LINE1":"1 47591U 21009AV  22205.72523100 -.00000299  00000-0 -11493-5 0  9994","GP_ID":"208798581","BSTAR":"-0.00000114930000","LAUNCH_DATE":"2021-02-04","EPOCH":"2022-07-24T17:24:19.958400","MEAN_MOTION":"15.06394709","INCLINATION":"53.0521","TLE_LINE2":"2 47591  53.0521 205.1376 0001737  52.4164 307.6982 15.06394709 81242","PERIOD":"95.592","PERIAPSIS":"546.027"},{"MEAN_MOTION_DOT":"0.00000279","MEAN_ANOMALY":"294.3606","RCS_SIZE":"LARGE","REF_FRAME":"TEME","ARG_OF_PERICENTER":"65.7529","DECAY_DATE":null,"EPHEMERIS_TYPE":"0","RA_OF_ASC_NODE":"224.9960","ELEMENT_SET_NO":"999","CLASSIFICATION_TYPE":"U","OBJECT_ID":"2021-009AW","NORAD_CAT_ID":"47592","ECCENTRICITY":"0.00013990","OBJECT_NAME":"STARLINK-1997","APOAPSIS":"548.191","COUNTRY_CODE":"US","TIME_SYSTEM":"UTC","FILE":"3521124","MEAN_MOTION_DDOT":"0.0000000000000","MEAN_ELEMENT_THEORY":"SGP4","OBJECT_TYPE":"PAYLOAD","CENTER_NAME":"EARTH","SITE":"AFETR","REV_AT_EPOCH":"8096","EPOCH":"2022-07-24T18:09:26.650944","BSTAR":"0.00003760600000","LAUNCH_DATE":"2021-02-04","GP_ID":"208799324","TLE_LINE1":"1 47592U 21009AW  22205.75655846  .00000279  00000-0  37606-4 0  9990","SEMIMAJOR_AXIS":"6925.357","PERIAPSIS":"546.254","TLE_LINE2":"2 47592  53.0540 224.9960 0001399  65.7529 294.3606 15.06397123 80964","PERIOD":"95.592","MEAN_MOTION":"15.06397123","INCLINATION":"53.0540"},{"SEMIMAJOR_AXIS":"6925.361","TLE_LINE1":"1 47593U 21009AX  22205.79342926 -.00000509  00000-0 -15303-4 0  9995","GP_ID":"208797580","LAUNCH_DATE":"2021-02-04","BSTAR":"-0.00001530300000","EPOCH":"2022-07-24T19:02:32.288064","INCLINATION":"53.0538","MEAN_MOTION":"15.06395925","PERIOD":"95.592","TLE_LINE2":"2 47593  53.0538 224.8119 0001715  63.0035 297.1129 15.06395925 80972","PERIAPSIS":"546.038","MEAN_MOTION_DDOT":"0.0000000000000","FILE":"3521124","TIME_SYSTEM":"UTC","REV_AT_EPOCH":"8097","SITE":"AFETR","OBJECT_TYPE":"PAYLOAD","CENTER_NAME":"EARTH","MEAN_ELEMENT_THEORY":"SGP4","ECCENTRICITY":"0.00017150","NORAD_CAT_ID":"47593","COUNTRY_CODE":"US","APOAPSIS":"548.414","OBJECT_NAME":"STARLINK-1998","DECAY_DATE":null,"ARG_OF_PERICENTER":"63.0035","REF_FRAME":"TEME","RCS_SIZE":"LARGE","MEAN_ANOMALY":"297.1129","MEAN_MOTION_DOT":"-0.00000509","OBJECT_ID":"2021-009AX","CLASSIFICATION_TYPE":"U","ELEMENT_SET_NO":"999","RA_OF_ASC_NODE":"224.8119","EPHEMERIS_TYPE":"0"},{"EPHEMERIS_TYPE":"0","RA_OF_ASC_NODE":"224.9779","ELEMENT_SET_NO":"999","CLASSIFICATION_TYPE":"U","OBJECT_ID":"2021-009AY","MEAN_MOTION_DOT":"0.00001775","MEAN_ANOMALY":"292.1583","RCS_SIZE":"LARGE","REF_FRAME":"TEME","ARG_OF_PERICENTER":"67.9571","DECAY_DATE":null,"OBJECT_NAME":"STARLINK-1999","APOAPSIS":"548.294","COUNTRY_CODE":"US","NORAD_CAT_ID":"47594","ECCENTRICITY":"0.00015520","MEAN_ELEMENT_THEORY":"SGP4","OBJECT_TYPE":"PAYLOAD","CENTER_NAME":"EARTH","SITE":"AFETR","REV_AT_EPOCH":"8096","TIME_SYSTEM":"UTC","FILE":"3521124","MEAN_MOTION_DDOT":"0.0000000000000","PERIAPSIS":"546.144","TLE_LINE2":"2 47594  53.0523 224.9779 0001552  67.9571 292.1583 15.06398178 80968","PERIOD":"95.592","MEAN_MOTION":"15.06398178","INCLINATION":"53.0523","EPOCH":"2022-07-24T18:14:45.162816","BSTAR":"0.00013803000000","LAUNCH_DATE":"2021-02-04","GP_ID":"208797830","TLE_LINE1":"1 47594U 21009AY  22205.76024494  .00001775  00000-0  13803-3 0  9996","SEMIMAJOR_AXIS":"6925.354"}];
